[
    {
        "Altitude(m)": 710041.723738563,
        "Argument of Periapsis(deg)": 0.004556048474650827,
        "Eccentricity": 0.0,
        "Inclination(deg)": 45.0,
        "Latitude(deg)": -25.56999489110074,
        "Longitude(deg)": 88.127452116652,
        "Mean Anomaly(deg)": -142.6594133410076,
        "RAAN(deg)": 339.99569922341675,
        "Satellite Name": "Constellation 1 1509",
        "Satellite Number": 1509,
        "Semi-Major Axis(m)": 7083131.272910544,
        "Time(s)": 76
    },
    {
        "Altitude(m)": 710055.5404272443,
        "Argument of Periapsis(deg)": 0.004615996480896233,
        "Eccentricity": 0.0,
        "Inclination(deg)": 45.0,
        "Latitude(deg)": -25.60787030696448,
        "Longitude(deg)": 88.17588772544862,
        "Mean Anomaly(deg)": -142.59871220075775,
        "RAAN(deg)": 339.9956426342512,
        "Satellite Name": "Constellation 1 1509",
        "Satellite Number": 1509,
        "Semi-Major Axis(m)": 7083131.272910544,
        "Time(s)": 77
    },
    {
        "Altitude(m)": 710069.3587714973,
        "Argument of Periapsis(deg)": 0.004675944487141638,
        "Eccentricity": 0.0,
        "Inclination(deg)": 45.0,
        "Latitude(deg)": -25.645726548401417,
        "Longitude(deg)": 88.22435630720922,
        "Mean Anomaly(deg)": -142.53801106050784,
        "RAAN(deg)": 339.9955860450856,
        "Satellite Name": "Constellation 1 1509",
        "Satellite Number": 1509,
        "Semi-Major Axis(m)": 7083131.272910544,
        "Time(s)": 78
    },
    {
        "Altitude(m)": 710083.1787241346,
        "Argument of Periapsis(deg)": 0.004735892493387044,
        "Eccentricity": 0.0,
        "Inclination(deg)": 45.0,
        "Latitude(deg)": -25.683563571739693,
        "Longitude(deg)": 88.27285792212852,
        "Mean Anomaly(deg)": -142.477309920258,
        "RAAN(deg)": 339.99552945592,
        "Satellite Name": "Constellation 1 1509",
        "Satellite Number": 1509,
        "Semi-Major Axis(m)": 7083131.272910544,
        "Time(s)": 79
    },
    {
        "Altitude(m)": 710097.0002379593,
        "Argument of Periapsis(deg)": 0.004795840499632449,
        "Eccentricity": 0.0,
        "Inclination(deg)": 45.0,
        "Latitude(deg)": -25.721381333244093,
        "Longitude(deg)": 88.32139263040109,
        "Mean Anomaly(deg)": -142.41660878000803,
        "RAAN(deg)": 339.9954728667545,
        "Satellite Name": "Constellation 1 1509",
        "Satellite Number": 1509,
        "Semi-Major Axis(m)": 7083131.272910544,
        "Time(s)": 80
    },
    {
        "Altitude(m)": 710110.8232657437,
        "Argument of Periapsis(deg)": 0.004855788505877855,
        "Eccentricity": 0.0,
        "Inclination(deg)": 45.0,
        "Latitude(deg)": -25.75917978911555,
        "Longitude(deg)": 88.36996049222086,
        "Mean Anomaly(deg)": -142.3559076397582,
        "RAAN(deg)": 339.9954162775889,
        "Satellite Name": "Constellation 1 1509",
        "Satellite Number": 1509,
        "Semi-Major Axis(m)": 7083131.272910544,
        "Time(s)": 81
    },
    {
        "Altitude(m)": 710124.6477602589,
        "Argument of Periapsis(deg)": 0.00491573651212326,
        "Eccentricity": 0.0,
        "Inclination(deg)": 45.0,
        "Latitude(deg)": -25.79695889549162,
        "Longitude(deg)": 88.41856139968445,
        "Mean Anomaly(deg)": -142.29520649950823,
        "RAAN(deg)": 339.9953596884233,
        "Satellite Name": "Constellation 1 1509",
        "Satellite Number": 1509,
        "Semi-Major Axis(m)": 7083131.272910544,
        "Time(s)": 82
    },
    {
        "Altitude(m)": 710138.4736742453,
        "Argument of Periapsis(deg)": 0.004975684518368666,
        "Eccentricity": 0.0,
        "Inclination(deg)": 45.0,
        "Latitude(deg)": -25.834718608445655,
        "Longitude(deg)": 88.4671957491775,
        "Mean Anomaly(deg)": -142.23450535925835,
        "RAAN(deg)": 339.99530309925774,
        "Satellite Name": "Constellation 1 1509",
        "Satellite Number": 1509,
        "Semi-Major Axis(m)": 7083131.272910544,
        "Time(s)": 83
    },
    {
        "Altitude(m)": 710152.3009604263,
        "Argument of Periapsis(deg)": 0.005035632524614072,
        "Eccentricity": 0.0,
        "Inclination(deg)": 45.0,
        "Latitude(deg)": -25.87245888398739,
        "Longitude(deg)": 88.51586343279405,
        "Mean Anomaly(deg)": -142.17380421900847,
        "RAAN(deg)": 339.99524651009216,
        "Satellite Name": "Constellation 1 1509",
        "Satellite Number": 1509,
        "Semi-Major Axis(m)": 7083131.272910544,
        "Time(s)": 84
    },
    {
        "Altitude(m)": 710166.1295715154,
        "Argument of Periapsis(deg)": 0.0050955805308594785,
        "Eccentricity": 0.0,
        "Inclination(deg)": 45.0,
        "Latitude(deg)": -25.910179678062658,
        "Longitude(deg)": 88.56456451072302,
        "Mean Anomaly(deg)": -142.11310307875854,
        "RAAN(deg)": 339.99518992092663,
        "Satellite Name": "Constellation 1 1509",
        "Satellite Number": 1509,
        "Semi-Major Axis(m)": 7083131.272910544,
        "Time(s)": 85
    },
    {
        "Altitude(m)": 710179.9594602006,
        "Argument of Periapsis(deg)": 0.005155528537104883,
        "Eccentricity": 0.0,
        "Inclination(deg)": 45.0,
        "Latitude(deg)": -25.94788094655299,
        "Longitude(deg)": 88.61329904315109,
        "Mean Anomaly(deg)": -142.0524019385087,
        "RAAN(deg)": 339.99513333176105,
        "Satellite Name": "Constellation 1 1509",
        "Satellite Number": 1509,
        "Semi-Major Axis(m)": 7083131.272910544,
        "Time(s)": 86
    },
    {
        "Altitude(m)": 710193.7905791624,
        "Argument of Periapsis(deg)": 0.0052154765433502885,
        "Eccentricity": 0.0,
        "Inclination(deg)": 45.0,
        "Latitude(deg)": -25.985562645275863,
        "Longitude(deg)": 88.66206709026262,
        "Mean Anomaly(deg)": -141.99170079825873,
        "RAAN(deg)": 339.9950767425955,
        "Satellite Name": "Constellation 1 1509",
        "Satellite Number": 1509,
        "Semi-Major Axis(m)": 7083131.272910544,
        "Time(s)": 87
    },
    {
        "Altitude(m)": 710207.6228810541,
        "Argument of Periapsis(deg)": 0.005275424549595694,
        "Eccentricity": 0.0,
        "Inclination(deg)": 45.0,
        "Latitude(deg)": -26.023224729984463,
        "Longitude(deg)": 88.71086871223888,
        "Mean Anomaly(deg)": -141.93099965800883,
        "RAAN(deg)": 339.9950201534299,
        "Satellite Name": "Constellation 1 1509",
        "Satellite Number": 1509,
        "Semi-Major Axis(m)": 7083131.272910544,
        "Time(s)": 88
    },
    {
        "Altitude(m)": 710221.4563185149,
        "Argument of Periapsis(deg)": 0.0053353725558411,
        "Eccentricity": 0.0,
        "Inclination(deg)": 45.0,
        "Latitude(deg)": -26.060867156367614,
        "Longitude(deg)": 88.75970380116132,
        "Mean Anomaly(deg)": -141.87029851775898,
        "RAAN(deg)": 339.9949635642643,
        "Satellite Name": "Constellation 1 1509",
        "Satellite Number": 1509,
        "Semi-Major Axis(m)": 7083131.272910544,
        "Time(s)": 89
    },
    {
        "Altitude(m)": 710235.2908441755,
        "Argument of Periapsis(deg)": 0.005395320562086505,
        "Eccentricity": 0.0,
        "Inclination(deg)": 45.0,
        "Latitude(deg)": -26.09848988004973,
        "Longitude(deg)": 88.80857275339866,
        "Mean Anomaly(deg)": -141.80959737750905,
        "RAAN(deg)": 339.9949069750988,
        "Satellite Name": "Constellation 1 1509",
        "Satellite Number": 1509,
        "Semi-Major Axis(m)": 7083131.272910544,
        "Time(s)": 90
    },
    {
        "Altitude(m)": 710249.1264106455,
        "Argument of Periapsis(deg)": 0.00545526856833191,
        "Eccentricity": 0.0,
        "Inclination(deg)": 45.0,
        "Latitude(deg)": -26.136092856590498,
        "Longitude(deg)": 88.85747546102452,
        "Mean Anomaly(deg)": -141.74889623725917,
        "RAAN(deg)": 339.9948503859332,
        "Satellite Name": "Constellation 1 1509",
        "Satellite Number": 1509,
        "Semi-Major Axis(m)": 7083131.272910544,
        "Time(s)": 91
    },
    {
        "Altitude(m)": 710262.9629705134,
        "Argument of Periapsis(deg)": 0.005515216574577317,
        "Eccentricity": 0.0,
        "Inclination(deg)": 45.0,
        "Latitude(deg)": -26.173676041485354,
        "Longitude(deg)": 88.90641198420597,
        "Mean Anomaly(deg)": -141.68819509700924,
        "RAAN(deg)": 339.9947937967676,
        "Satellite Name": "Constellation 1 1509",
        "Satellite Number": 1509,
        "Semi-Major Axis(m)": 7083131.272910544,
        "Time(s)": 92
    },
    {
        "Altitude(m)": 710276.8004763519,
        "Argument of Periapsis(deg)": 0.005575164580822722,
        "Eccentricity": 0.0,
        "Inclination(deg)": 45.0,
        "Latitude(deg)": -26.2112393901645,
        "Longitude(deg)": 88.95538238310452,
        "Mean Anomaly(deg)": -141.6274939567594,
        "RAAN(deg)": 339.9947372076021,
        "Satellite Name": "Constellation 1 1509",
        "Satellite Number": 1509,
        "Semi-Major Axis(m)": 7083131.272910544,
        "Time(s)": 93
    },
    {
        "Altitude(m)": 710290.6388807265,
        "Argument of Periapsis(deg)": 0.005635112587068129,
        "Eccentricity": 0.0,
        "Inclination(deg)": 45.0,
        "Latitude(deg)": -26.24878285799379,
        "Longitude(deg)": 89.00438671787757,
        "Mean Anomaly(deg)": -141.5667928165095,
        "RAAN(deg)": 339.99468061843646,
        "Satellite Name": "Constellation 1 1509",
        "Satellite Number": 1509,
        "Semi-Major Axis(m)": 7083131.272910544,
        "Time(s)": 94
    }
]